[{"OBJECT_NAME":"HULIANWANG DIGUI-126","OBJECT_ID":"2025-295H","EPOCH":"2026-03-09T18:35:13.985952","MEAN_MOTION":13.4400678,"ECCENTRICITY":7.745e-5,"INCLINATION":50.0011,"RA_OF_ASC_NODE":22.3092,"ARG_OF_PERICENTER":51.5932,"MEAN_ANOMALY":308.5016,"EPHEMERIS_TYPE":0,"CLASSIFICATION_TYPE":"U","NORAD_CAT_ID":67066,"ELEMENT_SET_NO":999,"REV_AT_EPOCH":1227,"BSTAR":8.281046e-5,"MEAN_MOTION_DOT":-8.1e-7,"MEAN_MOTION_DDOT":0},{"OBJECT_NAME":"DELTA 1 DEB","OBJECT_ID":"1975-052CN","EPOCH":"2026-03-09T23:47:36.992832","MEAN_MOTION":13.59326401,"ECCENTRICITY":0.00766863,"INCLINATION":99.5256,"RA_OF_ASC_NODE":237.8998,"ARG_OF_PERICENTER":120.9944,"MEAN_ANOMALY":1.3293,"EPHEMERIS_TYPE":0,"CLASSIFICATION_TYPE":"U","NORAD_CAT_ID":21368,"ELEMENT_SET_NO":999,"REV_AT_EPOCH":72602,"BSTAR":9.5624995e-5,"MEAN_MOTION_DOT":2.9e-7,"MEAN_MOTION_DDOT":0}]
